CCSDS_OMM_VERS = 2.0
CREATION_DATE  = 
ORIGINATOR     = 

OBJECT_NAME    = STARLINK-35139
OBJECT_ID      = 2025-257A
CENTER_NAME    = EARTH
REF_FRAME      = TEME
TIME_SYSTEM    = UTC
MEAN_ELEMENT_THEORY = SGP/SGP4

EPOCH          = 2025-11-29T04:00:01.998720
MEAN_MOTION    = 15.49645304
ECCENTRICITY   = .0001463
INCLINATION    = 53.1590
RA_OF_ASC_NODE = 328.7549
ARG_OF_PERICENTER = 90.3274
MEAN_ANOMALY   = 326.4884

EPHEMERIS_TYPE = 0
CLASSIFICATION_TYPE = U
NORAD_CAT_ID   = 66380
ELEMENT_SET_NO = 999
REV_AT_EPOCH   = 425
BSTAR          = -.10782E-1
MEAN_MOTION_DOT = -.565375E-2
MEAN_MOTION_DDOT = 0

CCSDS_OMM_VERS = 2.0
CREATION_DATE  = 
ORIGINATOR     = 

OBJECT_NAME    = STARLINK-35158
OBJECT_ID      = 2025-257B
CENTER_NAME    = EARTH
REF_FRAME      = TEME
TIME_SYSTEM    = UTC
MEAN_ELEMENT_THEORY = SGP/SGP4

EPOCH          = 2025-11-29T04:00:01.998720
MEAN_MOTION    = 15.49643170
ECCENTRICITY   = .0001633
INCLINATION    = 53.1590
RA_OF_ASC_NODE = 328.7505
ARG_OF_PERICENTER = 84.1273
MEAN_ANOMALY   = 334.6028

EPHEMERIS_TYPE = 0
CLASSIFICATION_TYPE = U
NORAD_CAT_ID   = 66381
ELEMENT_SET_NO = 999
REV_AT_EPOCH   = 431
BSTAR          = -.10665E-1
MEAN_MOTION_DOT = -.559605E-2
MEAN_MOTION_DDOT = 0

CCSDS_OMM_VERS = 2.0
CREATION_DATE  = 
ORIGINATOR     = 

OBJECT_NAME    = STARLINK-35639
OBJECT_ID      = 2025-257C
CENTER_NAME    = EARTH
REF_FRAME      = TEME
TIME_SYSTEM    = UTC
MEAN_ELEMENT_THEORY = SGP/SGP4

EPOCH          = 2025-11-29T04:00:01.998720
MEAN_MOTION    = 15.49640618
ECCENTRICITY   = .0001463
INCLINATION    = 53.1593
RA_OF_ASC_NODE = 328.7452
ARG_OF_PERICENTER = 88.8751
MEAN_ANOMALY   = 331.7723

EPHEMERIS_TYPE = 0
CLASSIFICATION_TYPE = U
NORAD_CAT_ID   = 66382
ELEMENT_SET_NO = 999
REV_AT_EPOCH   = 431
BSTAR          = -.10567E-1
MEAN_MOTION_DOT = -.554755E-2
MEAN_MOTION_DDOT = 0

CCSDS_OMM_VERS = 2.0
CREATION_DATE  = 
ORIGINATOR     = 

OBJECT_NAME    = STARLINK-35690
OBJECT_ID      = 2025-257D
CENTER_NAME    = EARTH
REF_FRAME      = TEME
TIME_SYSTEM    = UTC
MEAN_ELEMENT_THEORY = SGP/SGP4

EPOCH          = 2025-11-29T04:00:01.998720
MEAN_MOTION    = 15.49637361
ECCENTRICITY   = .0001412
INCLINATION    = 53.1593
RA_OF_ASC_NODE = 328.7374
ARG_OF_PERICENTER = 86.5638
MEAN_ANOMALY   = 337.9172

EPHEMERIS_TYPE = 0
CLASSIFICATION_TYPE = U
NORAD_CAT_ID   = 66383
ELEMENT_SET_NO = 999
REV_AT_EPOCH   = 431
BSTAR          = -.10458E-1
MEAN_MOTION_DOT = -.549349E-2
MEAN_MOTION_DDOT = 0

CCSDS_OMM_VERS = 2.0
CREATION_DATE  = 
ORIGINATOR     = 

OBJECT_NAME    = STARLINK-35662
OBJECT_ID      = 2025-257E
CENTER_NAME    = EARTH
REF_FRAME      = TEME
TIME_SYSTEM    = UTC
MEAN_ELEMENT_THEORY = SGP/SGP4

EPOCH          = 2025-11-29T04:00:01.998720
MEAN_MOTION    = 15.49638158
ECCENTRICITY   = .000155
INCLINATION    = 53.1594
RA_OF_ASC_NODE = 328.7343
ARG_OF_PERICENTER = 82.2875
MEAN_ANOMALY   = 344.1106

EPHEMERIS_TYPE = 0
CLASSIFICATION_TYPE = U
NORAD_CAT_ID   = 66384
ELEMENT_SET_NO = 999
REV_AT_EPOCH   = 431
BSTAR          = -.10479E-1
MEAN_MOTION_DOT = -.550415E-2
MEAN_MOTION_DDOT = 0

CCSDS_OMM_VERS = 2.0
CREATION_DATE  = 
ORIGINATOR     = 

OBJECT_NAME    = STARLINK-35659
OBJECT_ID      = 2025-257F
CENTER_NAME    = EARTH
REF_FRAME      = TEME
TIME_SYSTEM    = UTC
MEAN_ELEMENT_THEORY = SGP/SGP4

EPOCH          = 2025-11-29T04:00:01.998720
MEAN_MOTION    = 15.49639802
ECCENTRICITY   = .0001411
INCLINATION    = 53.1592
RA_OF_ASC_NODE = 328.7420
ARG_OF_PERICENTER = 85.3557
MEAN_ANOMALY   = 337.2071

EPHEMERIS_TYPE = 0
CLASSIFICATION_TYPE = U
NORAD_CAT_ID   = 66385
ELEMENT_SET_NO = 999
REV_AT_EPOCH   = 431
BSTAR          = -.1052E-1
MEAN_MOTION_DOT = -.552413E-2
MEAN_MOTION_DDOT = 0

CCSDS_OMM_VERS = 2.0
CREATION_DATE  = 
ORIGINATOR     = 

OBJECT_NAME    = STARLINK-35651
OBJECT_ID      = 2025-257G
CENTER_NAME    = EARTH
REF_FRAME      = TEME
TIME_SYSTEM    = UTC
MEAN_ELEMENT_THEORY = SGP/SGP4

EPOCH          = 2025-11-29T04:00:01.998720
MEAN_MOTION    = 15.49641362
ECCENTRICITY   = .0001436
INCLINATION    = 53.1592
RA_OF_ASC_NODE = 328.7302
ARG_OF_PERICENTER = 88.4029
MEAN_ANOMALY   = 339.9131

EPHEMERIS_TYPE = 0
CLASSIFICATION_TYPE = U
NORAD_CAT_ID   = 66386
ELEMENT_SET_NO = 999
REV_AT_EPOCH   = 431
BSTAR          = -.10629E-1
MEAN_MOTION_DOT = -.557809E-2
MEAN_MOTION_DDOT = 0

CCSDS_OMM_VERS = 2.0
CREATION_DATE  = 
ORIGINATOR     = 

OBJECT_NAME    = STARLINK-35661
OBJECT_ID      = 2025-257H
CENTER_NAME    = EARTH
REF_FRAME      = TEME
TIME_SYSTEM    = UTC
MEAN_ELEMENT_THEORY = SGP/SGP4

EPOCH          = 2025-11-29T04:00:01.998720
MEAN_MOTION    = 15.49614374
ECCENTRICITY   = .0000773
INCLINATION    = 53.1592
RA_OF_ASC_NODE = 328.7263
ARG_OF_PERICENTER = 86.9364
MEAN_ANOMALY   = 343.3017

EPHEMERIS_TYPE = 0
CLASSIFICATION_TYPE = U
NORAD_CAT_ID   = 66387
ELEMENT_SET_NO = 999
REV_AT_EPOCH   = 431
BSTAR          = -.10298E-1
MEAN_MOTION_DOT = -.54102E-2
MEAN_MOTION_DDOT = 0

CCSDS_OMM_VERS = 2.0
CREATION_DATE  = 
ORIGINATOR     = 

OBJECT_NAME    = STARLINK-35647
OBJECT_ID      = 2025-257J
CENTER_NAME    = EARTH
REF_FRAME      = TEME
TIME_SYSTEM    = UTC
MEAN_ELEMENT_THEORY = SGP/SGP4

EPOCH          = 2025-11-29T04:00:01.998720
MEAN_MOTION    = 15.49621316
ECCENTRICITY   = .0000936
INCLINATION    = 53.1591
RA_OF_ASC_NODE = 328.7221
ARG_OF_PERICENTER = 90.7385
MEAN_ANOMALY   = 341.4117

EPHEMERIS_TYPE = 0
CLASSIFICATION_TYPE = U
NORAD_CAT_ID   = 66388
ELEMENT_SET_NO = 999
REV_AT_EPOCH   = 431
BSTAR          = -.10352E-1
MEAN_MOTION_DOT = -.543818E-2
MEAN_MOTION_DDOT = 0

CCSDS_OMM_VERS = 2.0
CREATION_DATE  = 
ORIGINATOR     = 

OBJECT_NAME    = STARLINK-35694
OBJECT_ID      = 2025-257K
CENTER_NAME    = EARTH
REF_FRAME      = TEME
TIME_SYSTEM    = UTC
MEAN_ELEMENT_THEORY = SGP/SGP4

EPOCH          = 2025-11-29T04:00:01.998720
MEAN_MOTION    = 15.49636186
ECCENTRICITY   = .0001414
INCLINATION    = 53.1592
RA_OF_ASC_NODE = 328.7173
ARG_OF_PERICENTER = 81.5505
MEAN_ANOMALY   = 352.5152

EPHEMERIS_TYPE = 0
CLASSIFICATION_TYPE = U
NORAD_CAT_ID   = 66389
ELEMENT_SET_NO = 999
REV_AT_EPOCH   = 431
BSTAR          = -.10428E-1
MEAN_MOTION_DOT = -.547831E-2
MEAN_MOTION_DDOT = 0

CCSDS_OMM_VERS = 2.0
CREATION_DATE  = 
ORIGINATOR     = 

OBJECT_NAME    = STARLINK-35665
OBJECT_ID      = 2025-257L
CENTER_NAME    = EARTH
REF_FRAME      = TEME
TIME_SYSTEM    = UTC
MEAN_ELEMENT_THEORY = SGP/SGP4

EPOCH          = 2025-11-29T04:00:01.998720
MEAN_MOTION    = 15.49639091
ECCENTRICITY   = .0001415
INCLINATION    = 53.1593
RA_OF_ASC_NODE = 328.6463
ARG_OF_PERICENTER = 76.3776
MEAN_ANOMALY   = 32.1949

EPHEMERIS_TYPE = 0
CLASSIFICATION_TYPE = U
NORAD_CAT_ID   = 66390
ELEMENT_SET_NO = 999
REV_AT_EPOCH   = 441
BSTAR          = -.10585E-1
MEAN_MOTION_DOT = -.555582E-2
MEAN_MOTION_DDOT = 0

CCSDS_OMM_VERS = 2.0
CREATION_DATE  = 
ORIGINATOR     = 

OBJECT_NAME    = STARLINK-35656
OBJECT_ID      = 2025-257M
CENTER_NAME    = EARTH
REF_FRAME      = TEME
TIME_SYSTEM    = UTC
MEAN_ELEMENT_THEORY = SGP/SGP4

EPOCH          = 2025-11-29T04:00:01.998720
MEAN_MOTION    = 15.49012498
ECCENTRICITY   = .0001324
INCLINATION    = 53.1599
RA_OF_ASC_NODE = 328.4126
ARG_OF_PERICENTER = 71.1251
MEAN_ANOMALY   = 149.1300

EPHEMERIS_TYPE = 0
CLASSIFICATION_TYPE = U
NORAD_CAT_ID   = 66391
ELEMENT_SET_NO = 999
REV_AT_EPOCH   = 441
BSTAR          = -.40379E-1
MEAN_MOTION_DOT = -.1986729E-1
MEAN_MOTION_DDOT = 0

