STARLINK-35139          
1 66380U 25257A   25333.16668980 -.00565375  00000+0 -10782-1 0  9995
2 66380  53.1590 328.7549 0001463  90.3274 326.4884 15.49645304  4252
STARLINK-35158          
1 66381U 25257B   25333.16668980 -.00559605  00000+0 -10665-1 0  9995
2 66381  53.1590 328.7505 0001633  84.1273 334.6028 15.49643170  4311
STARLINK-35639          
1 66382U 25257C   25333.16668980 -.00554755  00000+0 -10567-1 0  9998
2 66382  53.1593 328.7452 0001463  88.8751 331.7723 15.49640618  4313
STARLINK-35690          
1 66383U 25257D   25333.16668980 -.00549349  00000+0 -10458-1 0  9991
2 66383  53.1593 328.7374 0001412  86.5638 337.9172 15.49637361  4317
STARLINK-35662          
1 66384U 25257E   25333.16668980 -.00550415  00000+0 -10479-1 0  9991
2 66384  53.1594 328.7343 0001550  82.2875 344.1106 15.49638158  4316
STARLINK-35659          
1 66385U 25257F   25333.16668980 -.00552413  00000+0 -10520-1 0  9999
2 66385  53.1592 328.7420 0001411  85.3557 337.2071 15.49639802  4319
STARLINK-35651          
1 66386U 25257G   25333.16668980 -.00557809  00000+0 -10629-1 0  9994
2 66386  53.1592 328.7302 0001436  88.4029 339.9131 15.49641362  4314
STARLINK-35661          
1 66387U 25257H   25333.16668980 -.00541020  00000+0 -10298-1 0  9995
2 66387  53.1592 328.7263 0000773  86.9364 343.3017 15.49614374  4314
STARLINK-35647          
1 66388U 25257J   25333.16668980 -.00543818  00000+0 -10352-1 0  9994
2 66388  53.1591 328.7221 0000936  90.7385 341.4117 15.49621316  4319
STARLINK-35694          
1 66389U 25257K   25333.16668980 -.00547831  00000+0 -10428-1 0  9998
2 66389  53.1592 328.7173 0001414  81.5505 352.5152 15.49636186  4314
STARLINK-35665          
1 66390U 25257L   25333.16668980 -.00555582  00000+0 -10585-1 0  9996
2 66390  53.1593 328.6463 0001415  76.3776  32.1949 15.49639091  4415
STARLINK-35656          
1 66391U 25257M   25333.16668980 -.01986729  00000+0 -40379-1 0  9993
2 66391  53.1599 328.4126 0001324  71.1251 149.1300 15.49012498  4412
